{"type": "FeatureCollection", "features": [ {"type": "Feature", "properties": {"norad_id": 44476, "name": "INTELSAT 39 (IS-39)", "group": "intelsat", "lat": 0.03971506192714442, "lon": 79.38090429553058, "alt_km": 35784.29219000862, "timestamp": "2025-12-23T18:59:31.657674+00:00", "meta": {"OBJECT_NAME": "INTELSAT 39 (IS-39)", "OBJECT_ID": "2019-049B", "EPOCH": "2025-12-23T04:42:38.708640", "MEAN_MOTION": 1.00270289, "ECCENTRICITY": 0.00012093, "INCLINATION": 0.0189, "RA_OF_ASC_NODE": 343.7704, "ARG_OF_PERICENTER": 160.7012, "MEAN_ANOMALY": 80.1243, "EPHEMERIS_TYPE": 0, "CLASSIFICATION_TYPE": "U", "NORAD_CAT_ID": 44476, "ELEMENT_SET_NO": 999, "REV_AT_EPOCH": 2336, "BSTAR": 0, "MEAN_MOTION_DOT": 5.5e-07, "MEAN_MOTION_DDOT": 0}, "tle": {"line1": "1 44476U 19049B   25357.19628135  .00000055  00000+0  00000+0 0  9993", "line2": "2 44476   0.0189 343.7704 0001209 160.7012  80.1243  1.00270289 23363"}}, "geometry": {"type": "Point", "coordinates": [79.38090429553058, 0.03971506192714442]}}, {"type": "Feature", "properties": {"norad_id": 46114, "name": "GALAXY 30 (G-30)", "group": "intelsat", "lat": -0.037416661498617124, "lon": -107.55506095550197, "alt_km": 35778.232863143305, "timestamp": "2025-12-23T18:59:31.657685+00:00", "meta": {"OBJECT_NAME": "GALAXY 30 (G-30)", "OBJECT_ID": "2020-056C", "EPOCH": "2025-12-23T03:38:39.356160", "MEAN_MOTION": 1.00270214, "ECCENTRICITY": 0.00020157, "INCLINATION": 0.0188, "RA_OF_ASC_NODE": 12.6466, "ARG_OF_PERICENTER": 254.5213, "MEAN_ANOMALY": 114.4446, "EPHEMERIS_TYPE": 0, "CLASSIFICATION_TYPE": "U", "NORAD_CAT_ID": 46114, "ELEMENT_SET_NO": 999, "REV_AT_EPOCH": 1952, "BSTAR": 0, "MEAN_MOTION_DOT": 5.8e-07, "MEAN_MOTION_DDOT": 0}, "tle": {"line1": "1 46114U 20056C   25357.15184440  .00000058  00000+0  00000+0 0  9999", "line2": "2 46114   0.0188  12.6466 0002015 254.5213 114.4446  1.00270214 19528"}}, "geometry": {"type": "Point", "coordinates": [-107.55506095550197, -0.037416661498617124]}}, {"type": "Feature", "properties": {"norad_id": 54026, "name": "GALAXY 33 (G-33)", "group": "intelsat", "lat": -0.026159181881084983, "lon": -115.55016247271736, "alt_km": 35779.630532758456, "timestamp": "2025-12-23T18:59:31.657696+00:00", "meta": {"OBJECT_NAME": "GALAXY 33 (G-33)", "OBJECT_ID": "2022-128A", "EPOCH": "2025-12-22T11:35:15.906336", "MEAN_MOTION": 1.00271669, "ECCENTRICITY": 0.00015964, "INCLINATION": 0.0184, "RA_OF_ASC_NODE": 305.6803, "ARG_OF_PERICENTER": 318.2802, "MEAN_ANOMALY": 228.1459, "EPHEMERIS_TYPE": 0, "CLASSIFICATION_TYPE": "U", "NORAD_CAT_ID": 54026, "ELEMENT_SET_NO": 999, "REV_AT_EPOCH": 1197, "BSTAR": 0, "MEAN_MOTION_DOT": 1.01e-06, "MEAN_MOTION_DDOT": 0}, "tle": {"line1": "1 54026U 22128A   25356.48282299  .00000101  00000+0  00000+0 0  9997", "line2": "2 54026   0.0184 305.6803 0001596 318.2802 228.1459  1.00271669 11973"}}, "geometry": {"type": "Point", "coordinates": [-115.55016247271736, -0.026159181881084983]}}, {"type": "Feature", "properties": {"norad_id": 54027, "name": "GALAXY 34 (G-34)", "group": "intelsat", "lat": -0.04248462178207892, "lon": -111.51334341244169, "alt_km": 35779.222228990475, "timestamp": "2025-12-23T18:59:31.657707+00:00", "meta": {"OBJECT_NAME": "GALAXY 34 (G-34)", "OBJECT_ID": "2022-128B", "EPOCH": "2025-12-23T06:43:21.759744", "MEAN_MOTION": 1.00269465, "ECCENTRICITY": 0.0001844, "INCLINATION": 0.0227, "RA_OF_ASC_NODE": 347.0413, "ARG_OF_PERICENTER": 278.1688, "MEAN_ANOMALY": 158.7483, "EPHEMERIS_TYPE": 0, "CLASSIFICATION_TYPE": "U", "NORAD_CAT_ID": 54027, "ELEMENT_SET_NO": 999, "REV_AT_EPOCH": 1214, "BSTAR": 0, "MEAN_MOTION_DOT": 0, "MEAN_MOTION_DDOT": 0}, "tle": {"line1": "1 54027U 22128B   25357.28011296  .00000000  00000+0  00000+0 0  9992", "line2": "2 54027   0.0227 347.0413 0001844 278.1688 158.7483  1.00269465 12147"}}, "geometry": {"type": "Point", "coordinates": [-111.51334341244169, -0.04248462178207892]}}, {"type": "Feature", "properties": {"norad_id": 54243, "name": "GALAXY 31 (G-31)", "group": "intelsat", "lat": -0.014389028612156211, "lon": -103.55986971538243, "alt_km": 35780.658993813006, "timestamp": "2025-12-23T18:59:31.657718+00:00", "meta": {"OBJECT_NAME": "GALAXY 31 (G-31)", "OBJECT_ID": "2022-153A", "EPOCH": "2025-12-23T06:48:11.617920", "MEAN_MOTION": 1.00271322, "ECCENTRICITY": 0.00014471, "INCLINATION": 0.0291, "RA_OF_ASC_NODE": 246.4931, "ARG_OF_PERICENTER": 35.5879, "MEAN_ANOMALY": 151.0395, "EPHEMERIS_TYPE": 0, "CLASSIFICATION_TYPE": "U", "NORAD_CAT_ID": 54243, "ELEMENT_SET_NO": 999, "REV_AT_EPOCH": 536, "BSTAR": 0, "MEAN_MOTION_DOT": 3.4e-07, "MEAN_MOTION_DDOT": 0}, "tle": {"line1": "1 54243U 22153A   25357.28346780  .00000034  00000+0  00000+0 0  9996", "line2": "2 54243   0.0291 246.4931 0001447  35.5879 151.0395  1.00271322  5360"}}, "geometry": {"type": "Point", "coordinates": [-103.55986971538243, -0.014389028612156211]}}, {"type": "Feature", "properties": {"norad_id": 54244, "name": "GALAXY 32 (G-32)", "group": "intelsat", "lat": -0.03215297625734558, "lon": -73.57101457471757, "alt_km": 35779.58143386825, "timestamp": "2025-12-23T18:59:31.657729+00:00", "meta": {"OBJECT_NAME": "GALAXY 32 (G-32)", "OBJECT_ID": "2022-153B", "EPOCH": "2025-12-22T07:35:47.616576", "MEAN_MOTION": 1.00270236, "ECCENTRICITY": 0.00019823, "INCLINATION": 0.0109, "RA_OF_ASC_NODE": 353.9495, "ARG_OF_PERICENTER": 325.6757, "MEAN_ANOMALY": 154.4441, "EPHEMERIS_TYPE": 0, "CLASSIFICATION_TYPE": "U", "NORAD_CAT_ID": 54244, "ELEMENT_SET_NO": 999, "REV_AT_EPOCH": 1137, "BSTAR": 0, "MEAN_MOTION_DOT": -1.52e-06, "MEAN_MOTION_DDOT": 0}, "tle": {"line1": "1 54244U 22153B   25356.31652334 -.00000152  00000+0  00000+0 0  9997", "line2": "2 54244   0.0109 353.9495 0001982 325.6757 154.4441  1.00270236 11370"}}, "geometry": {"type": "Point", "coordinates": [-73.57101457471757, -0.03215297625734558]}}, {"type": "Feature", "properties": {"norad_id": 54741, "name": "GALAXY 35 (G-35)", "group": "intelsat", "lat": -0.022649454389139935, "lon": -75.63555808130377, "alt_km": 35776.9468344622, "timestamp": "2025-12-23T18:59:31.657740+00:00", "meta": {"OBJECT_NAME": "GALAXY 35 (G-35)", "OBJECT_ID": "2022-170A", "EPOCH": "2025-12-23T04:13:27.577632", "MEAN_MOTION": 1.00271562, "ECCENTRICITY": 0.00022113, "INCLINATION": 0.0227, "RA_OF_ASC_NODE": 87.6624, "ARG_OF_PERICENTER": 186.8343, "MEAN_ANOMALY": 147.7469, "EPHEMERIS_TYPE": 0, "CLASSIFICATION_TYPE": "U", "NORAD_CAT_ID": 54741, "ELEMENT_SET_NO": 999, "REV_AT_EPOCH": 1112, "BSTAR": 0, "MEAN_MOTION_DOT": -1.41e-06, "MEAN_MOTION_DDOT": 0}, "tle": {"line1": "1 54741U 22170A   25357.17601363 -.00000141  00000+0  00000+0 0  9997", "line2": "2 54741   0.0227  87.6624 0002211 186.8343 147.7469  1.00271562 11123"}}, "geometry": {"type": "Point", "coordinates": [-75.63555808130377, -0.022649454389139935]}}, {"type": "Feature", "properties": {"norad_id": 54742, "name": "GALAXY 36 (G-36)", "group": "intelsat", "lat": -0.029915482313607078, "lon": -71.55576611574864, "alt_km": 35785.33584218975, "timestamp": "2025-12-23T18:59:31.657750+00:00", "meta": {"OBJECT_NAME": "GALAXY 36 (G-36)", "OBJECT_ID": "2022-170B", "EPOCH": "2025-12-23T06:09:11.626848", "MEAN_MOTION": 1.00270403, "ECCENTRICITY": 4.607e-05, "INCLINATION": 0.0188, "RA_OF_ASC_NODE": 66.7013, "ARG_OF_PERICENTER": 274.6982, "MEAN_ANOMALY": 113.9474, "EPHEMERIS_TYPE": 0, "CLASSIFICATION_TYPE": "U", "NORAD_CAT_ID": 54742, "ELEMENT_SET_NO": 999, "REV_AT_EPOCH": 1101, "BSTAR": 0, "MEAN_MOTION_DOT": -1.64e-06, "MEAN_MOTION_DDOT": 0}, "tle": {"line1": "1 54742U 22170B   25357.25638457 -.00000164  00000+0  00000+0 0  9996", "line2": "2 54742   0.0188  66.7013 0000460 274.6982 113.9474  1.00270403 11011"}}, "geometry": {"type": "Point", "coordinates": [-71.55576611574864, -0.029915482313607078]}}, {"type": "Feature", "properties": {"norad_id": 57493, "name": "GALAXY 37 (G-37)", "group": "intelsat", "lat": -0.03688380582534679, "lon": -109.56763413608512, "alt_km": 35778.54038873503, "timestamp": "2025-12-23T18:59:31.657761+00:00", "meta": {"OBJECT_NAME": "GALAXY 37 (G-37)", "OBJECT_ID": "2023-112A", "EPOCH": "2025-12-23T06:44:10.007232", "MEAN_MOTION": 1.00271431, "ECCENTRICITY": 0.00019943, "INCLINATION": 0.0166, "RA_OF_ASC_NODE": 358.1611, "ARG_OF_PERICENTER": 278.0212, "MEAN_ANOMALY": 149.9236, "EPHEMERIS_TYPE": 0, "CLASSIFICATION_TYPE": "U", "NORAD_CAT_ID": 57493, "ELEMENT_SET_NO": 999, "REV_AT_EPOCH": 877, "BSTAR": 0, "MEAN_MOTION_DOT": 6.9e-07, "MEAN_MOTION_DDOT": 0}, "tle": {"line1": "1 57493U 23112A   25357.28067138  .00000069  00000+0  00000+0 0  9997", "line2": "2 57493   0.0166 358.1611 0001994 278.0212 149.9236  1.00271431  8778"}}, "geometry": {"type": "Point", "coordinates": [-109.56763413608512, -0.03688380582534679]}}]}